{
    "links": {
        "self": "http://www.neowsapp.com/rest/v1/neo/3789548?api_key=iIulBulltgU6a56xZRHN4H3l9WmuAYTsLGpBGhQ2"
    },
    "id": "3789548",
    "neo_reference_id": "3789548",
    "name": "(2017 WF2)",
    "designation": "2017 WF2",
    "nasa_jpl_url": "http://ssd.jpl.nasa.gov/sbdb.cgi?sstr=3789548",
    "absolute_magnitude_h": 23.7,
    "estimated_diameter": {
        "kilometers": {
            "estimated_diameter_min": 0.0483676488,
            "estimated_diameter_max": 0.1081533507
        },
        "meters": {
            "estimated_diameter_min": 48.3676488219,
            "estimated_diameter_max": 108.1533506775
        },
        "miles": {
            "estimated_diameter_min": 0.0300542543,
            "estimated_diameter_max": 0.0672033557
        },
        "feet": {
            "estimated_diameter_min": 158.6865169607,
            "estimated_diameter_max": 354.8338390368
        }
    },
    "is_potentially_hazardous_asteroid": false,
    "close_approach_data": [
        {
            "close_approach_date": "1904-12-14",
            "close_approach_date_full": "1904-Dec-14 01:51",
            "epoch_date_close_approach": -2052770940000,
            "relative_velocity": {
                "kilometers_per_second": "5.2536213492",
                "kilometers_per_hour": "18913.0368571788",
                "miles_per_hour": "11751.825596062"
            },
            "miss_distance": {
                "astronomical": "0.2374795749",
                "lunar": "92.3795546361",
                "kilometers": "35526438.573545463",
                "miles": "22075105.2933668694"
            },
            "orbiting_body": "Earth"
        },
        {
            "close_approach_date": "1912-08-07",
            "close_approach_date_full": "1912-Aug-07 20:24",
            "epoch_date_close_approach": -1811388960000,
            "relative_velocity": {
                "kilometers_per_second": "7.3049612932",
                "kilometers_per_hour": "26297.8606554254",
                "miles_per_hour": "16340.4679167003"
            },
            "miss_distance": {
                "astronomical": "1.9180776413",
                "lunar": "746.1322024657",
                "kilometers": "286940329.633104031",
                "miles": "178296453.1176203878"
            },
            "orbiting_body": "Juptr"
        },
        {
            "close_approach_date": "2017-12-15",
            "close_approach_date_full": "2017-Dec-15 12:31",
            "epoch_date_close_approach": 1513341060000,
            "relative_velocity": {
                "kilometers_per_second": "5.6705236535",
                "kilometers_per_hour": "20413.8851525859",
                "miles_per_hour": "12684.3943605054"
            },
            "miss_distance": {
                "astronomical": "0.2332531256",
                "lunar": "90.7354658584",
                "kilometers": "34894170.760602472",
                "miles": "21682232.2921672336"
            },
            "orbiting_body": "Earth"
        },
        {
            "close_approach_date": "2019-11-29",
            "close_approach_date_full": "2019-Nov-29 22:47",
            "epoch_date_close_approach": 1575067620000,
            "relative_velocity": {
                "kilometers_per_second": "7.9566508725",
                "kilometers_per_hour": "28643.9431408444",
                "miles_per_hour": "17798.2323365986"
            },
            "miss_distance": {
                "astronomical": "1.8961520396",
                "lunar": "737.6031434044",
                "kilometers": "283660306.320315652",
                "miles": "176258341.1395619176"
            },
            "orbiting_body": "Juptr"
        },
        {
            "close_approach_date": "2146-12-17",
            "close_approach_date_full": "2146-Dec-17 06:07",
            "epoch_date_close_approach": 5584313220000,
            "relative_velocity": {
                "kilometers_per_second": "5.8592824322",
                "kilometers_per_hour": "21093.4167559051",
                "miles_per_hour": "13106.6288725789"
            },
            "miss_distance": {
                "astronomical": "0.2582616197",
                "lunar": "100.4637700633",
                "kilometers": "38635388.209870039",
                "miles": "24006917.0180789782"
            },
            "orbiting_body": "Earth"
        }
    ],
    "orbital_data": {
        "orbit_id": "5",
        "orbit_determination_date": "2017-12-30 06:30:56",
        "first_observation_date": "2017-11-18",
        "last_observation_date": "2017-12-19",
        "data_arc_in_days": 31,
        "observations_used": 27,
        "orbit_uncertainty": "7",
        "minimum_orbit_intersection": ".236767",
        "jupiter_tisserand_invariant": "3.043",
        "epoch_osculation": "2459000.5",
        "eccentricity": ".5686727603944101",
        "semi_major_axis": "2.829894570640184",
        "inclination": "7.040324573513423",
        "ascending_node_longitude": "265.2692175161092",
        "orbital_period": "1738.816732694893",
        "perihelion_distance": "1.220610613529077",
        "perihelion_argument": "178.7967891933218",
        "aphelion_distance": "4.439178527751292",
        "perihelion_time": "2459844.482545617357",
        "mean_anomaly": "185.2640944216393",
        "mean_motion": ".2070373451272559",
        "equinox": "J2000",
        "orbit_class": {
            "orbit_class_type": "AMO",
            "orbit_class_description": "Near-Earth asteroid orbits similar to that of 1221 Amor",
            "orbit_class_range": "1.017 AU < q (perihelion) < 1.3 AU"
        }
    },
    "is_sentry_object": false
}